CCSDS_OMM_VERS = 2.0
CREATION_DATE  = 
ORIGINATOR     = 

OBJECT_NAME    = STARLINK-36652
OBJECT_ID      = 2026-033U
CENTER_NAME    = EARTH
REF_FRAME      = TEME
TIME_SYSTEM    = UTC
MEAN_ELEMENT_THEORY = SGP/SGP4

EPOCH          = 2026-02-25T19:29:24.919872
MEAN_MOTION    = 15.86824239
ECCENTRICITY   = .001514
INCLINATION    = 42.9987
RA_OF_ASC_NODE = 344.1289
ARG_OF_PERICENTER = 243.9442
MEAN_ANOMALY   = 115.9873

EPHEMERIS_TYPE = 0
CLASSIFICATION_TYPE = U
NORAD_CAT_ID   = 67839
ELEMENT_SET_NO = 999
REV_AT_EPOCH   = 274
BSTAR          = .18961E-2
MEAN_MOTION_DOT = .537729E-2
MEAN_MOTION_DDOT = 0

CCSDS_OMM_VERS = 2.0
CREATION_DATE  = 
ORIGINATOR     = 

OBJECT_NAME    = STARLINK-36651
OBJECT_ID      = 2026-033V
CENTER_NAME    = EARTH
REF_FRAME      = TEME
TIME_SYSTEM    = UTC
MEAN_ELEMENT_THEORY = SGP/SGP4

EPOCH          = 2026-02-25T20:59:10.879872
MEAN_MOTION    = 15.84427684
ECCENTRICITY   = .0005156
INCLINATION    = 42.9991
RA_OF_ASC_NODE = 343.7342
ARG_OF_PERICENTER = 280.1618
MEAN_ANOMALY   = 79.8673

EPHEMERIS_TYPE = 0
CLASSIFICATION_TYPE = U
NORAD_CAT_ID   = 67840
ELEMENT_SET_NO = 999
REV_AT_EPOCH   = 275
BSTAR          = -.70726E-2
MEAN_MOTION_DOT = -.1481471E-1
MEAN_MOTION_DDOT = 0

CCSDS_OMM_VERS = 2.0
CREATION_DATE  = 
ORIGINATOR     = 

OBJECT_NAME    = STARLINK-36656
OBJECT_ID      = 2026-033W
CENTER_NAME    = EARTH
REF_FRAME      = TEME
TIME_SYSTEM    = UTC
MEAN_ELEMENT_THEORY = SGP/SGP4

EPOCH          = 2026-02-25T22:29:01.094208
MEAN_MOTION    = 15.84203515
ECCENTRICITY   = .000512
INCLINATION    = 42.9986
RA_OF_ASC_NODE = 343.3405
ARG_OF_PERICENTER = 301.3975
MEAN_ANOMALY   = 58.6397

EPHEMERIS_TYPE = 0
CLASSIFICATION_TYPE = U
NORAD_CAT_ID   = 67841
ELEMENT_SET_NO = 999
REV_AT_EPOCH   = 276
BSTAR          = -.16634E-2
MEAN_MOTION_DOT = -.373443E-2
MEAN_MOTION_DDOT = 0

CCSDS_OMM_VERS = 2.0
CREATION_DATE  = 
ORIGINATOR     = 

OBJECT_NAME    = STARLINK-36653
OBJECT_ID      = 2026-033X
CENTER_NAME    = EARTH
REF_FRAME      = TEME
TIME_SYSTEM    = UTC
MEAN_ELEMENT_THEORY = SGP/SGP4

EPOCH          = 2026-02-25T20:57:12.146400
MEAN_MOTION    = 15.84721359
ECCENTRICITY   = .000479
INCLINATION    = 42.9986
RA_OF_ASC_NODE = 343.7220
ARG_OF_PERICENTER = 283.9864
MEAN_ANOMALY   = 76.0476

EPHEMERIS_TYPE = 0
CLASSIFICATION_TYPE = U
NORAD_CAT_ID   = 67842
ELEMENT_SET_NO = 999
REV_AT_EPOCH   = 275
BSTAR          = -.67633E-2
MEAN_MOTION_DOT = -.1413617E-1
MEAN_MOTION_DDOT = 0

CCSDS_OMM_VERS = 2.0
CREATION_DATE  = 
ORIGINATOR     = 

OBJECT_NAME    = STARLINK-36589
OBJECT_ID      = 2026-033Y
CENTER_NAME    = EARTH
REF_FRAME      = TEME
TIME_SYSTEM    = UTC
MEAN_ELEMENT_THEORY = SGP/SGP4

EPOCH          = 2026-02-25T20:55:47.806176
MEAN_MOTION    = 15.88265501
ECCENTRICITY   = .0003962
INCLINATION    = 42.9991
RA_OF_ASC_NODE = 343.7144
ARG_OF_PERICENTER = 332.5225
MEAN_ANOMALY   = 27.5440

EPHEMERIS_TYPE = 0
CLASSIFICATION_TYPE = U
NORAD_CAT_ID   = 67843
ELEMENT_SET_NO = 999
REV_AT_EPOCH   = 275
BSTAR          = .20469E-2
MEAN_MOTION_DOT = .625474E-2
MEAN_MOTION_DDOT = 0

CCSDS_OMM_VERS = 2.0
CREATION_DATE  = 
ORIGINATOR     = 

OBJECT_NAME    = STARLINK-36598
OBJECT_ID      = 2026-033Z
CENTER_NAME    = EARTH
REF_FRAME      = TEME
TIME_SYSTEM    = UTC
MEAN_ELEMENT_THEORY = SGP/SGP4

EPOCH          = 2026-02-25T20:55:19.652736
MEAN_MOTION    = 15.85124231
ECCENTRICITY   = .0004816
INCLINATION    = 42.9990
RA_OF_ASC_NODE = 343.7119
ARG_OF_PERICENTER = 289.2095
MEAN_ANOMALY   = 70.8257

EPHEMERIS_TYPE = 0
CLASSIFICATION_TYPE = U
NORAD_CAT_ID   = 67844
ELEMENT_SET_NO = 999
REV_AT_EPOCH   = 275
BSTAR          = -.59733E-2
MEAN_MOTION_DOT = -.1289987E-1
MEAN_MOTION_DDOT = 0

CCSDS_OMM_VERS = 2.0
CREATION_DATE  = 
ORIGINATOR     = 

OBJECT_NAME    = STARLINK-36606
OBJECT_ID      = 2026-033AA
CENTER_NAME    = EARTH
REF_FRAME      = TEME
TIME_SYSTEM    = UTC
MEAN_ELEMENT_THEORY = SGP/SGP4

EPOCH          = 2026-02-25T22:25:09.981984
MEAN_MOTION    = 15.85002314
ECCENTRICITY   = .0005114
INCLINATION    = 42.9985
RA_OF_ASC_NODE = 343.3181
ARG_OF_PERICENTER = 303.8521
MEAN_ANOMALY   = 56.1865

EPHEMERIS_TYPE = 0
CLASSIFICATION_TYPE = U
NORAD_CAT_ID   = 67845
ELEMENT_SET_NO = 999
REV_AT_EPOCH   = 276
BSTAR          = -.16213E-2
MEAN_MOTION_DOT = -.378086E-2
MEAN_MOTION_DDOT = 0

CCSDS_OMM_VERS = 2.0
CREATION_DATE  = 
ORIGINATOR     = 

OBJECT_NAME    = STARLINK-36658
OBJECT_ID      = 2026-033AB
CENTER_NAME    = EARTH
REF_FRAME      = TEME
TIME_SYSTEM    = UTC
MEAN_ELEMENT_THEORY = SGP/SGP4

EPOCH          = 2026-02-25T20:53:28.471488
MEAN_MOTION    = 15.86673438
ECCENTRICITY   = .0008135
INCLINATION    = 43.0004
RA_OF_ASC_NODE = 343.6999
ARG_OF_PERICENTER = 257.1959
MEAN_ANOMALY   = 102.8006

EPHEMERIS_TYPE = 0
CLASSIFICATION_TYPE = U
NORAD_CAT_ID   = 67846
ELEMENT_SET_NO = 999
REV_AT_EPOCH   = 275
BSTAR          = -.32522E-2
MEAN_MOTION_DOT = -.787993E-2
MEAN_MOTION_DDOT = 0

CCSDS_OMM_VERS = 2.0
CREATION_DATE  = 
ORIGINATOR     = 

OBJECT_NAME    = STARLINK-36618
OBJECT_ID      = 2026-033AC
CENTER_NAME    = EARTH
REF_FRAME      = TEME
TIME_SYSTEM    = UTC
MEAN_ELEMENT_THEORY = SGP/SGP4

EPOCH          = 2026-02-25T22:53:17.394720
MEAN_MOTION    = 16.04059168
ECCENTRICITY   = .0002601
INCLINATION    = 42.9897
RA_OF_ASC_NODE = 342.5650
ARG_OF_PERICENTER = 285.4299
MEAN_ANOMALY   = 74.6294

EPHEMERIS_TYPE = 0
CLASSIFICATION_TYPE = U
NORAD_CAT_ID   = 67847
ELEMENT_SET_NO = 999
REV_AT_EPOCH   = 277
BSTAR          = .66134E-3
MEAN_MOTION_DOT = .445731E-2
MEAN_MOTION_DDOT = .9792E-4

CCSDS_OMM_VERS = 2.0
CREATION_DATE  = 
ORIGINATOR     = 

OBJECT_NAME    = STARLINK-36660
OBJECT_ID      = 2026-033AD
CENTER_NAME    = EARTH
REF_FRAME      = TEME
TIME_SYSTEM    = UTC
MEAN_ELEMENT_THEORY = SGP/SGP4

EPOCH          = 2026-02-25T22:23:17.470176
MEAN_MOTION    = 15.85399520
ECCENTRICITY   = .0004926
INCLINATION    = 42.9984
RA_OF_ASC_NODE = 343.3075
ARG_OF_PERICENTER = 300.2872
MEAN_ANOMALY   = 59.7514

EPHEMERIS_TYPE = 0
CLASSIFICATION_TYPE = U
NORAD_CAT_ID   = 67848
ELEMENT_SET_NO = 999
REV_AT_EPOCH   = 276
BSTAR          = -.14088E-2
MEAN_MOTION_DOT = -.336523E-2
MEAN_MOTION_DDOT = 0

CCSDS_OMM_VERS = 2.0
CREATION_DATE  = 
ORIGINATOR     = 

OBJECT_NAME    = STARLINK-36602
OBJECT_ID      = 2026-033AE
CENTER_NAME    = EARTH
REF_FRAME      = TEME
TIME_SYSTEM    = UTC
MEAN_ELEMENT_THEORY = SGP/SGP4

EPOCH          = 2026-02-25T04:15:23.719968
MEAN_MOTION    = 15.88355708
ECCENTRICITY   = .00042
INCLINATION    = 42.9989
RA_OF_ASC_NODE = 347.9681
ARG_OF_PERICENTER = 338.6330
MEAN_ANOMALY   = 21.4368

EPHEMERIS_TYPE = 0
CLASSIFICATION_TYPE = U
NORAD_CAT_ID   = 67849
ELEMENT_SET_NO = 999
REV_AT_EPOCH   = 264
BSTAR          = .17774E-2
MEAN_MOTION_DOT = .540238E-2
MEAN_MOTION_DDOT = 0

CCSDS_OMM_VERS = 2.0
CREATION_DATE  = 
ORIGINATOR     = 

OBJECT_NAME    = STARLINK-36840
OBJECT_ID      = 2026-034A
CENTER_NAME    = EARTH
REF_FRAME      = TEME
TIME_SYSTEM    = UTC
MEAN_ELEMENT_THEORY = SGP/SGP4

EPOCH          = 2026-02-25T23:37:04.118880
MEAN_MOTION    = 15.92211404
ECCENTRICITY   = .000166
INCLINATION    = 53.1525
RA_OF_ASC_NODE = 270.1569
ARG_OF_PERICENTER = 21.7771
MEAN_ANOMALY   = 338.3327

EPHEMERIS_TYPE = 0
CLASSIFICATION_TYPE = U
NORAD_CAT_ID   = 67850
ELEMENT_SET_NO = 999
REV_AT_EPOCH   = 208
BSTAR          = -.12162E-2
MEAN_MOTION_DOT = -.421487E-2
MEAN_MOTION_DDOT = .67677E-4

