STARLINK-36652          
1 67839U 26033U   26056.81209398  .00537729  00000+0  18961-2 0  9995
2 67839  42.9987 344.1289 0015140 243.9442 115.9873 15.86824239  2749
STARLINK-36651          
1 67840U 26033V   26056.87443148 -.01481471  00000+0 -70726-2 0  9998
2 67840  42.9991 343.7342 0005156 280.1618  79.8673 15.84427684  2753
STARLINK-36656          
1 67841U 26033W   26056.93681822 -.00373443  00000+0 -16634-2 0  9995
2 67841  42.9986 343.3405 0005120 301.3975  58.6397 15.84203515  2761
STARLINK-36653          
1 67842U 26033X   26056.87305725 -.01413617  00000+0 -67633-2 0  9998
2 67842  42.9986 343.7220 0004790 283.9864  76.0476 15.84721359  2757
STARLINK-36589          
1 67843U 26033Y   26056.87208109  .00625474  00000+0  20469-2 0  9996
2 67843  42.9991 343.7144 0003962 332.5225  27.5440 15.88265501  2759
STARLINK-36598          
1 67844U 26033Z   26056.87175524 -.01289987  00000+0 -59733-2 0  9995
2 67844  42.9990 343.7119 0004816 289.2095  70.8257 15.85124231  2751
STARLINK-36606          
1 67845U 26033AA  26056.93414331 -.00378086  00000+0 -16213-2 0  9999
2 67845  42.9985 343.3181 0005114 303.8521  56.1865 15.85002314  2760
STARLINK-36658          
1 67846U 26033AB  26056.87046842 -.00787993  00000+0 -32522-2 0  9993
2 67846  43.0004 343.6999 0008135 257.1959 102.8006 15.86673438  2754
STARLINK-36618          
1 67847U 26033AC  26056.95367355  .00445731  97920-4  66134-3 0  9996
2 67847  42.9897 342.5650 0002601 285.4299  74.6294 16.04059168  2774
STARLINK-36660          
1 67848U 26033AD  26056.93284109 -.00336523  00000+0 -14088-2 0  9998
2 67848  42.9984 343.3075 0004926 300.2872  59.7514 15.85399520  2762
STARLINK-36602          
1 67849U 26033AE  26056.17735787  .00540238  00000+0  17774-2 0  9991
2 67849  42.9989 347.9681 0004200 338.6330  21.4368 15.88355708  2643
STARLINK-36840          
1 67850U 26034A   26056.98407545 -.00421487  67677-4 -12162-2 0  9991
2 67850  53.1525 270.1569 0001660  21.7771 338.3327 15.92211404  2085
